IRIDIUM 57              
1 25273U 98019B   24294.42160262  .00001570  00000+0  53928-3 0  9992
2 25273  86.3949 245.6288 0002389  87.2816 272.8654 14.35500492390389
IRIDIUM 63              
1 25286U 98021B   24294.53462579  .00001581  00000+0  53669-3 0  9991
2 25286  86.4051 182.5665 0002121  76.7947 283.3486 14.36112506389449
IRIDIUM 69              
1 25319U 98026A   24294.23284904  .00002379  00000+0  74308-3 0  9993
2 25319  86.4047 196.6820 0004607  87.5364 272.6363 14.40421290388514
IRIDIUM 71              
1 25320U 98026B   24294.27604780  .00001801  00000+0  55825-3 0  9999
2 25320  86.4047 191.4065 0003445 118.8055 241.3491 14.40688452389043
IRIDIUM 73              
1 25344U 98032C   24294.55686930  .00002046  00000+0  51242-3 0  9991
2 25344  86.4431 148.5520 0002794  84.2886 275.8637 14.51022314395805
IRIDIUM 82              
1 25467U 98051A   24294.33455358  .00057577  00000+0  24590-2 0  9996
2 25467  86.3769 226.1127 0117664 116.9505 244.3813 15.16489675387418
